OBJECT_NAME,OBJECT_ID,EPOCH,MEAN_MOTION,ECCENTRICITY,INCLINATION,RA_OF_ASC_NODE,ARG_OF_PERICENTER,MEAN_ANOMALY,EPHEMERIS_TYPE,CLASSIFICATION_TYPE,NORAD_CAT_ID,ELEMENT_SET_NO,REV_AT_EPOCH,BSTAR,MEAN_MOTION_DOT,MEAN_MOTION_DDOT
SUOMI NPP,2011-061A,2026-07-07T18:45:19.351008,14.19521584,.0000567,98.7955,129.5172,270.2245,89.8866,0,U,37849,999,76136,.47617E-4,.56E-6,0
YAOGAN-12,2011-066B,2026-07-07T20:18:18.917856,15.26842264,.0010575,97.1133,226.4444,145.2785,214.9146,0,U,37875,999,81519,.62275E-4,.1576E-4,0
BEIDOU-2 M4,2012-018B,2026-07-05T21:56:58.538688,1.86229838,.00118237,55.6406,303.4567,273.7127,86.1743,0,U,38251,999,9629,0,-.61E-6,0
ARIRANG-3 (KOMPSAT-3),2012-025B,2026-07-07T20:03:05.387328,14.62224753,.0006588,98.1180,145.9403,57.8211,302.3629,0,U,38338,999,75436,.7798E-4,.346E-5,0
METOP-B,2012-049A,2026-07-07T17:51:01.561248,14.21444955,.000111,98.6493,239.8318,301.4211,58.6858,0,U,38771,999,71618,.51499E-4,.69E-6,0
SJ-9A,2012-056A,2026-07-07T18:37:56.665920,14.85518838,.0025299,97.6721,159.9849,186.0889,174.0022,0,U,38860,999,70264,.10736E-3,.879E-5,0
COSMOS 2484 (RODNIK-S 6),2013-001C,2026-07-07T19:59:22.446816,12.42939928,.0025978,82.4999,209.0568,351.9015,8.1642,0,U,39059,999,61112,-.17871E-3,-.15E-6,0
SARAL,2013-009A,2026-07-07T18:43:52.571712,14.32894453,.0001253,98.5555,15.0872,187.5932,172.5233,0,U,39086,999,69855,.39936E-4,.65E-6,0
STRAND-1,2013-009E,2026-07-07T10:55:21.902304,14.37175624,.0008963,98.3931,8.1913,162.7350,197.4144,0,U,39090,999,69997,.93038286E-4,.234E-5,0
BRITE-AUSTRIA,2013-009F,2026-07-07T18:07:44.894208,14.36550382,.0010305,98.4005,7.6829,172.0296,188.1056,0,U,39091,999,70000,.6177E-4,.139E-5,0
GAOFEN-1,2013-018A,2026-07-07T20:49:25.041216,14.76512222,.0016397,97.9083,260.5149,195.0575,165.0148,0,U,39150,999,71129,-.26367E-5,-.69E-6,0
NEE-01 PEGASO,2013-018B,2026-07-06T21:26:17.199168,14.93765912,.00139848,98.1252,332.6981,99.0383,261.2419,0,U,39151,999,71364,.25827133E-3,.268E-4,0
PROBA-V,2013-021A,2026-07-07T18:47:16.917216,14.23602409,.0005416,98.3598,166.3739,76.9126,283.2658,0,U,39159,999,68404,.58216E-4,.92E-6,0
ARIRANG-5 (KOMPSAT-5),2013-042A,2026-07-07T20:24:10.986624,15.04516696,.0005359,97.6219,15.2598,74.8920,285.2899,0,U,39227,999,70696,.98459E-4,.1318E-4,0
GONETS-M 5,2013-048A,2026-07-07T21:11:39.761376,12.42892336,.0017045,82.4850,330.4791,165.0062,195.1526,0,U,39249,999,58145,-.15271E-4,.8E-7,0
GONETS-M 7,2013-048C,2026-07-07T20:17:46.779648,12.42915459,.0017842,82.4917,333.4354,166.4293,193.7270,0,U,39251,999,58140,.68507E-3,.105E-5,0
FENGYUN 3C,2013-052A,2026-07-07T21:25:08.493888,14.15759668,.0014018,98.4992,161.8178,328.2003,31.8324,0,U,39260,999,66149,.57871E-4,.72E-6,0
CASSIOPE,2013-055A,2026-07-07T17:58:38.052192,15.27038160,.0284809,80.9132,41.7143,353.1518,6.5852,0,U,39265,999,67080,.30874E-3,.28746E-3,-.52906E-6
APRIZESAT 7,2013-066A,2026-07-07T19:35:00.655584,14.91608303,.0036733,97.7717,141.7407,141.0059,219.3819,0,U,39416,999,68430,.11693E-3,.1131E-4,0
ZACUBE-1 (TSHEPISOSAT),2013-066B,2026-07-07T11:16:39.129312,15.01305441,.00435096,97.8022,150.9081,179.9834,180.1399,0,U,39417,999,68377,.14443632E-3,.1831E-4,0
APRIZESAT 8,2013-066K,2026-07-07T18:58:16.088736,14.87688679,.0044887,97.8227,135.9721,216.6040,143.2107,0,U,39425,999,68273,.80082E-4,.685E-5,0
